{
    "links": {
        "self": "http://www.neowsapp.com/rest/v1/neo/3634712?api_key=iIulBulltgU6a56xZRHN4H3l9WmuAYTsLGpBGhQ2"
    },
    "id": "3634712",
    "neo_reference_id": "3634712",
    "name": "(2013 GH69)",
    "designation": "2013 GH69",
    "nasa_jpl_url": "http://ssd.jpl.nasa.gov/sbdb.cgi?sstr=3634712",
    "absolute_magnitude_h": 23.1,
    "estimated_diameter": {
        "kilometers": {
            "estimated_diameter_min": 0.063760979,
            "estimated_diameter_max": 0.1425738833
        },
        "meters": {
            "estimated_diameter_min": 63.7609789875,
            "estimated_diameter_max": 142.5738833281
        },
        "miles": {
            "estimated_diameter_min": 0.0396192233,
            "estimated_diameter_max": 0.0885912765
        },
        "feet": {
            "estimated_diameter_min": 209.1895703015,
            "estimated_diameter_max": 467.7620993781
        }
    },
    "is_potentially_hazardous_asteroid": false,
    "close_approach_data": [
        {
            "close_approach_date": "2009-04-26",
            "close_approach_date_full": "2009-Apr-26 04:30",
            "epoch_date_close_approach": 1240720200000,
            "relative_velocity": {
                "kilometers_per_second": "6.4773442534",
                "kilometers_per_hour": "23318.4393123279",
                "miles_per_hour": "14489.1713604851"
            },
            "miss_distance": {
                "astronomical": "0.3562808339",
                "lunar": "138.5932443871",
                "kilometers": "53298853.873263793",
                "miles": "33118372.0775266234"
            },
            "orbiting_body": "Earth"
        },
        {
            "close_approach_date": "2013-04-30",
            "close_approach_date_full": "2013-Apr-30 15:03",
            "epoch_date_close_approach": 1367334180000,
            "relative_velocity": {
                "kilometers_per_second": "6.2548472078",
                "kilometers_per_hour": "22517.4499481091",
                "miles_per_hour": "13991.4677191459"
            },
            "miss_distance": {
                "astronomical": "0.2352419856",
                "lunar": "91.5091323984",
                "kilometers": "35191699.980330672",
                "miles": "21867108.3764883936"
            },
            "orbiting_body": "Earth"
        },
        {
            "close_approach_date": "2017-04-30",
            "close_approach_date_full": "2017-Apr-30 02:57",
            "epoch_date_close_approach": 1493521020000,
            "relative_velocity": {
                "kilometers_per_second": "8.0544381994",
                "kilometers_per_hour": "28995.9775176684",
                "miles_per_hour": "18016.9728081312"
            },
            "miss_distance": {
                "astronomical": "0.3163397846",
                "lunar": "123.0561762094",
                "kilometers": "47323757.972418802",
                "miles": "29405619.6473593876"
            },
            "orbiting_body": "Earth"
        }
    ],
    "orbital_data": {
        "orbit_id": "8",
        "orbit_determination_date": "2017-04-06 08:46:08",
        "first_observation_date": "2013-04-11",
        "last_observation_date": "2013-05-01",
        "data_arc_in_days": 20,
        "observations_used": 24,
        "orbit_uncertainty": "7",
        "minimum_orbit_intersection": ".220815",
        "jupiter_tisserand_invariant": "3.256",
        "epoch_osculation": "2459000.5",
        "eccentricity": ".5106588396126944",
        "semi_major_axis": "2.500722531998429",
        "inclination": "9.722483179971448",
        "ascending_node_longitude": "27.12139609636447",
        "orbital_period": "1444.43062451278",
        "perihelion_distance": "1.223706465614792",
        "perihelion_argument": "196.0477599619296",
        "aphelion_distance": "3.777738598382065",
        "perihelion_time": "2459309.119845460165",
        "mean_anomaly": "283.0817025891185",
        "mean_motion": ".2492331538051067",
        "equinox": "J2000",
        "orbit_class": {
            "orbit_class_type": "AMO",
            "orbit_class_description": "Near-Earth asteroid orbits similar to that of 1221 Amor",
            "orbit_class_range": "1.017 AU < q (perihelion) < 1.3 AU"
        }
    },
    "is_sentry_object": false
}